SHIYAN-1 (SY-1)         
1 28220U 04012A   26068.73650539  .00016393  00000+0  54854-3 0  9991
2 28220  97.8764 140.5238 0005873  23.6952 336.4557 15.31043463195862
STARLINK-35323          
1 66071U 25235P   26068.80920766  .00040449  00000+0  13712-2 0  9993
2 66071  53.1599 244.4353 0001197  81.9408 278.1728 15.30182085 22942
